     2.10           N: GPS NAV DATA                         RINEX VERSION / TYPE
teqc  2009Oct19     IGN                 20160321 02:12:04UTCPGM / RUN BY / DATE
    17                                                      LEAP SECONDS
Linux 2.4.20-8|Pentium IV|gcc -static|Linux|486/DX+         COMMENT
teqc  2009Oct19     IGN                 20160321 01:21:12UTCCOMMENT
    1.6764D-08  7.4506D-09 -1.1921D-07  0.0000D+00          ION ALPHA
    1.1059D+05  0.0000D+00 -2.6214D+05  0.0000D+00          ION BETA
    9.313225746155D-10 3.552713678801D-15   233472     1889 DELTA-UTC: A0,A1,T,W
                                                            END OF HEADER
17 16  3 21  0  0  0.0-2.022869884968D-04-4.547473508865D-13 0.000000000000D+00
    8.200000000000D+01 3.478125000000D+01 4.586976780280D-09 1.721124515882D+00
    1.475214958191D-06 1.098879543133D-02 3.401190042496D-06 5.153653354645D+03
    8.640000000000D+04-1.490116119385D-07-2.038687889499D+00-2.048909664154D-07
    9.753940886446D-01 3.234062500000D+02-1.935380599730D+00-8.276416174526D-09
    9.107522222000D-11 1.000000000000D+00 1.889000000000D+03 0.000000000000D+00
    2.000000000000D+00 0.000000000000D+00-1.071020960808D-08 8.200000000000D+01
    8.383800000000D+04 4.000000000000D+00
30 16  3 21  0  0  0.0 1.087808050215D-04 3.865352482535D-12 0.000000000000D+00
    5.700000000000D+01-5.881250000000D+01 4.795914054785D-09-9.749631788098D-01
   -3.175809979439D-06 1.815773197450D-03 8.502975106239D-06 5.153624094009D+03
    8.640000000000D+04 3.725290298462D-09 2.174497062839D+00-4.284083843231D-08
    9.527186931063D-01 2.095000000000D+02 2.976403705241D+00-8.205698943155D-09
   -4.003738200338D-10 1.000000000000D+00 1.889000000000D+03 0.000000000000D+00
    2.000000000000D+00 0.000000000000D+00 3.259629011154D-09 5.700000000000D+01
    8.256600000000D+04 4.000000000000D+00
 7 16  3 21  0  0  0.0 4.642698913813D-04-1.818989403546D-12 0.000000000000D+00
    3.400000000000D+01-5.775000000000D+01 4.516616706644D-09-1.114003443721D+00
   -3.006309270859D-06 9.164232760668D-03 8.117407560349D-06 5.153662481308D+03
    8.640000000000D+04 1.993030309677D-07 2.129384528453D+00-7.078051567078D-08
    9.669012450093D-01 2.222500000000D+02-2.683409069387D+00-8.049263855577D-09
   -3.860875106660D-10 1.000000000000D+00 1.889000000000D+03 0.000000000000D+00
    2.000000000000D+00 0.000000000000D+00-1.117587089539D-08 3.400000000000D+01
    7.921800000000D+04 4.000000000000D+00
23 16  3 21  0  0  0.0-1.656161621213D-04-1.818989403546D-12 0.000000000000D+00
    1.040000000000D+02 3.834375000000D+01 5.253433112290D-09 4.365361329222D-01
    2.088025212288D-06 1.060984900687D-02 4.293397068977D-06 5.153701389313D+03
    8.640000000000D+04-1.862645149231D-09 1.056821822014D+00 2.291053533554D-07
    9.462317281324D-01 2.894062500000D+02-2.602798687367D+00-8.648217375824D-09
    2.835832409517D-10 1.000000000000D+00 1.889000000000D+03 0.000000000000D+00
    2.000000000000D+00 0.000000000000D+00-2.002343535423D-08 1.040000000000D+02
    7.921800000000D+04 4.000000000000D+00
 3 16  3 21  0  0  0.0-3.841193392873D-05-4.320099833421D-12 0.000000000000D+00
    7.000000000000D+01 1.178125000000D+01 4.155530237371D-09 1.774227612685D+00
    6.798654794693D-07 2.360217040405D-04 1.238659024239D-05 5.153750919342D+03
    8.640000000000D+04-1.862645149231D-08 1.104436001907D-02-4.284083843231D-08
    9.597991317607D-01 1.416250000000D+02-2.806563325474D+00-7.800682072577D-09
    2.778687172046D-10 1.000000000000D+00 1.889000000000D+03 0.000000000000D+00
    2.000000000000D+00 0.000000000000D+00 1.862645149231D-09 7.000000000000D+01
    7.921800000000D+04 4.000000000000D+00
27 16  3 21  0  0  0.0 7.400242611766D-05 3.751665644813D-12 0.000000000000D+00
    9.000000000000D+01 4.115625000000D+01 4.797699843456D-09 1.769511356439D+00
    2.300366759300D-06 3.401604830287D-03 3.220513463020D-06 5.153632429123D+03
    8.640000000000D+04-1.303851604462D-08-2.088209590220D+00 1.005828380585D-07
    9.703651614554D-01 3.229375000000D+02 2.147903488459D-01-8.447494729206D-09
    1.282196265764D-10 1.000000000000D+00 1.889000000000D+03 0.000000000000D+00
    2.000000000000D+00 0.000000000000D+00 1.396983861923D-09 9.000000000000D+01
    7.921800000000D+04 4.000000000000D+00
28 16  3 21  0  0  0.0 5.105128511786D-04 2.728484105319D-12 0.000000000000D+00
    6.400000000000D+01 5.721875000000D+01 3.695868233461D-09 2.485400804725D+00
    2.935528755188D-06 1.981768594123D-02 1.095794141293D-05 5.153627967834D+03
    8.640000000000D+04 2.048909664154D-07-3.055795815899D+00-1.862645149231D-07
    9.898568800608D-01 1.769687500000D+02-1.618879604536D+00-7.262445367143D-09
    1.075044779930D-10 1.000000000000D+00 1.889000000000D+03 0.000000000000D+00
    2.000000000000D+00 0.000000000000D+00-1.071020960808D-08 6.400000000000D+01
    8.626200000000D+04 4.000000000000D+00
 1 16  3 21  0  0  0.0 1.494027674198D-05 1.136868377216D-12 0.000000000000D+00
    2.400000000000D+01-1.005625000000D+02 4.519473968517D-09-3.907055325108D-01
   -5.340203642845D-06 5.189245915972D-03 7.338821887970D-06 5.153652851105D+03
    8.640000000000D+04 9.126961231232D-08-1.029970602890D+00 7.823109626770D-08
    9.638590395693D-01 2.379375000000D+02 4.528045368293D-01-8.259272603284D-09
   -5.543088034723D-10 1.000000000000D+00 1.889000000000D+03 0.000000000000D+00
    2.000000000000D+00 0.000000000000D+00 5.122274160385D-09 2.400000000000D+01
    7.921800000000D+04 4.000000000000D+00
11 16  3 21  0  0  0.0-6.374940276146D-04-1.591615728103D-12 0.000000000000D+00
    7.700000000000D+01-7.334375000000D+01 6.503485181977D-09-9.941886814349D-01
   -3.593042492867D-06 1.624101761263D-02 3.440305590630D-06 5.153652265549D+03
    8.640000000000D+04-2.365559339523D-07-1.402307105480D+00 2.514570951462D-07
    8.956562202252D-01 2.772500000000D+02 1.508133342687D+00-9.479323423298D-09
   -3.878732993369D-10 1.000000000000D+00 1.889000000000D+03 0.000000000000D+00
    2.000000000000D+00 0.000000000000D+00-1.210719347000D-08 7.700000000000D+01
    7.921800000000D+04 4.000000000000D+00
 9 16  3 21  0  0  0.0 9.385123848915D-05 7.503331289627D-12 0.000000000000D+00
    2.600000000000D+01 3.790625000000D+01 4.961992401186D-09 1.617626199733D+00
    2.000480890274D-06 6.514464039356D-04 4.442408680916D-06 5.153609855652D+03
    8.640000000000D+04 1.303851604462D-08 1.050957404754D+00 1.490116119385D-08
    9.552827364575D-01 2.909062500000D+02 2.001347954438D+00-8.399992750558D-09
    3.525146836515D-10 1.000000000000D+00 1.889000000000D+03 0.000000000000D+00
    2.000000000000D+00 0.000000000000D+00 1.396983861923D-09 2.600000000000D+01
    7.921800000000D+04 4.000000000000D+00
26 16  3 21  0  0  0.0-3.002951852977D-04-1.443822839065D-11 0.000000000000D+00
    5.200000000000D+01 6.837500000000D+01 4.399826281087D-09-2.803097223428D+00
    3.531575202942D-06 9.565063519403D-04 1.152791082859D-05 5.153734167099D+03
    8.640000000000D+04-2.980232238770D-08-3.137426659351D+00-1.862645149231D-08
    9.609230097976D-01 1.594687500000D+02 1.368558546528D-02-7.926044709450D-09
    1.810789712620D-10 1.000000000000D+00 1.889000000000D+03 0.000000000000D+00
    2.000000000000D+00 0.000000000000D+00 6.984919309616D-09 5.200000000000D+01
    8.640000000000D+04
31 16  3 21  0  0  0.0 2.775024622679D-04-1.705302565824D-12 0.000000000000D+00
    5.700000000000D+01-5.231250000000D+01 4.450542601120D-09-1.192780986882D+00
   -3.060325980186D-06 8.255912340246D-03 8.689239621162D-06 5.153713922501D+03
    8.640000000000D+04 3.166496753693D-08 2.138434465922D+00-1.154839992523D-07
    9.717398772778D-01 2.172812500000D+02-4.100143980597D-01-8.094265702141D-09
   -3.385855207316D-10 1.000000000000D+00 1.889000000000D+03 0.000000000000D+00
    2.000000000000D+00 0.000000000000D+00-1.350417733192D-08 5.700000000000D+01
    8.640000000000D+04
13 16  3 21  0  0  0.0-4.994682967663D-06-2.842170943040D-12 0.000000000000D+00
    5.000000000000D+01 1.975000000000D+01 4.682337895311D-09-1.648537382256D-01
    8.679926395416D-07 4.606754286215D-03 4.125759005547D-06 5.153676301956D+03
    8.640000000000D+04-5.587935447693D-09 1.170704629964D+00-3.352761268616D-08
    9.716443911518D-01 3.045000000000D+02 1.986067718047D+00-8.352847929644D-09
    2.378670509746D-10 1.000000000000D+00 1.889000000000D+03 0.000000000000D+00
    2.000000000000D+00 0.000000000000D+00-1.117587089539D-08 5.000000000000D+01
    8.547000000000D+04 4.000000000000D+00
 5 16  3 21  0  0  0.0-1.358869485557D-04 3.296918293927D-12 0.000000000000D+00
    6.000000000000D+01 1.437500000000D+01 4.526974280935D-09 2.517339605276D+00
    7.580965757370D-07 4.580563632771D-03 1.140497624874D-05 5.153760440826D+03
    8.640000000000D+04-4.470348358154D-08 4.796615798301D-05-7.078051567078D-08
    9.468931982453D-01 1.536875000000D+02 4.704204696894D-01-7.984261147953D-09
    2.625109346341D-10 1.000000000000D+00 1.889000000000D+03 0.000000000000D+00
    2.000000000000D+00 0.000000000000D+00-1.071020960808D-08 6.000000000000D+01
    8.304000000000D+04 4.000000000000D+00
21 16  3 21  0  0  0.0-5.157259292901D-04-1.591615728103D-12 0.000000000000D+00
    1.000000000000D+01-9.150000000000D+01 4.905204321449D-09-2.133770725510D+00
   -4.716217517853D-06 2.330706582870D-02 6.299465894699D-06 5.153651029587D+03
    8.640000000000D+04 3.129243850708D-07-1.061558801957D+00 1.862645149231D-08
    9.357670874381D-01 2.363750000000D+02-1.813317218249D+00-8.018191132702D-09
   -3.371569010811D-10 1.000000000000D+00 1.889000000000D+03 0.000000000000D+00
    2.000000000000D+00 0.000000000000D+00-1.164153218269D-08 1.000000000000D+01
    8.157000000000D+04 4.000000000000D+00
